[{"OBJECT_NAME":"STARLINK-5838","OBJECT_ID":"2023-088AB","EPOCH":"2026-03-09T22:00:01.999584","MEAN_MOTION":15.09602828,"ECCENTRICITY":0.00011465,"INCLINATION":43.0011,"RA_OF_ASC_NODE":93.5912,"ARG_OF_PERICENTER":280.4736,"MEAN_ANOMALY":298.1595,"EPHEMERIS_TYPE":0,"CLASSIFICATION_TYPE":"U","NORAD_CAT_ID":57073,"ELEMENT_SET_NO":999,"REV_AT_EPOCH":567,"BSTAR":0.0030416892,"MEAN_MOTION_DOT":0.00049865,"MEAN_MOTION_DDOT":0},{"OBJECT_NAME":"CZ-6A DEB","OBJECT_ID":"2022-151BX","EPOCH":"2026-03-09T18:04:18.424992","MEAN_MOTION":15.16566225,"ECCENTRICITY":0.00404449,"INCLINATION":98.6231,"RA_OF_ASC_NODE":169.9483,"ARG_OF_PERICENTER":104.1368,"MEAN_ANOMALY":256.4361,"EPHEMERIS_TYPE":0,"CLASSIFICATION_TYPE":"U","NORAD_CAT_ID":54328,"ELEMENT_SET_NO":999,"REV_AT_EPOCH":10563,"BSTAR":0.0050960293,"MEAN_MOTION_DOT":0.00102794,"MEAN_MOTION_DDOT":0}]
